NORAD_CAT_ID,OBJECT_NAME,OBJECT_TYPE,EPOCH,MEAN_MOTION,ECCENTRICITY,INCLINATION,RA_OF_ASC_NODE,ARG_OF_PERICENTER,MEAN_ANOMALY,BSTAR,MEAN_MOTION_DOT,MEAN_MOTION_DDOT,TLE_LINE0,TLE_LINE1,TLE_LINE2,SEMIMAJOR_AXIS,PERIOD,APOGEE,PERIGEE,DECAYED
53292.0,STARLINK-4159,PAYLOAD,2022-09-07 14:00:01,15.73175141,0.0002000999999999,53.2162,180.3712,21.6885,10.8994,0.00036684,0.00051124,0.0,0 STARLINK-4159,1 53292U 22086BC  22250.58334491  .00051124  00000-0  36684-3 0  9990,2 53292  53.2162 180.3712 0002001  21.6885  10.8994 15.73175141  7729,6727.965999999999,91.535,351.177,348.485,0.0
53292.0,STARLINK-4159,PAYLOAD,2022-09-07 22:00:00,15.73254822,0.0002053,53.2166,178.7221,24.2521,97.2446,-0.00025592,-0.0003647,0.0,0 STARLINK-4159,1 53292U 22086BC  22250.91667824 -.00036470  00000-0 -25592-3 0  9991,2 53292  53.2166 178.7221 0002053  24.2521  97.2446 15.73254822  1305,6727.739000000001,91.53,350.985,348.223,0.0
53292.0,STARLINK-4159,PAYLOAD,2022-09-08 14:00:01,15.73172558,0.0002025,53.2171,175.4229,23.2191,276.2233,0.00037198,0.00051848,0.0,0 STARLINK-4159,1 53292U 22086BC  22251.58334491  .00051848  00000-0  37198-3 0  9995,2 53292  53.2171 175.4229 0002025  23.2191 276.2233 15.73172558  1302,6727.973000000001,91.535,351.201,348.476,0.0
53292.0,STARLINK-4159,PAYLOAD,2022-09-08 22:00:00,15.73261245,0.0002048,53.2173,173.7739,21.8925,6.4623,-0.00036289,-0.00051378,0.0,0 STARLINK-4159,1 53292U 22086BC  22251.91667824 -.00051378  00000-0 -36289-3 0  9991,2 53292  53.2173 173.7739 0002048  21.8925   6.4623 15.73261245  7938,6727.721,91.53,350.963,348.208,0.0
53292.0,STARLINK-4159,PAYLOAD,2022-09-09 14:00:01,15.73185254,0.0001969,53.2168,170.4743,26.6221,179.6567,0.00015078,0.0002058,0.0,0 STARLINK-4159,1 53292U 22086BC  22252.58334491  .00020580  00000-0  15078-3 0  9998,2 53292  53.2168 170.4743 0001969  26.6221 179.6567 15.73185254  1304,6727.937,91.534,351.12699999999984,348.477,0.0
53292.0,STARLINK-4159,PAYLOAD,2022-09-09 20:00:01,15.73197794,0.0001989,53.2171,169.2375,32.1923,150.7743,2.5964e-05,3.024e-05,0.0,0 STARLINK-4159,1 53292U 22086BC  22252.83334491  .00003024  00000-0  25964-4 0  9996,2 53292  53.2171 169.2375 0001989  32.1923 150.7743 15.73197794  8077,6727.901,91.533,351.105,348.42800000000005,0.0
53292.0,STARLINK-4159,PAYLOAD,2022-09-09 22:00:00,15.73191253,0.0002068,53.217,168.8257,31.9314,263.2692,0.00012189,0.00016514,0.0,0 STARLINK-4159,1 53292U 22086BC  22252.91667824  .00016514  00000-0  12189-3 0  9996,2 53292  53.2170 168.8257 0002068  31.9314 263.2692 15.73191253  1306,6727.92,91.534,351.176,348.394,0.0
53292.0,STARLINK-4159,PAYLOAD,2022-09-10 04:00:00,15.73180912,0.0002287,53.217,167.5867,29.3841,242.5216,0.000766,0.00108195,0.0,0 STARLINK-4159,1 53292U 22086BC  22253.16667824  .00108195  00000-0  76600-3 0  9999,2 53292  53.2170 167.5867 0002287  29.3841 242.5216 15.73180912  8127,6727.95,91.534,351.353,348.276,0.0
53292.0,STARLINK-4159,PAYLOAD,2022-09-10 12:00:00,15.73238856,0.0001978,53.2174,165.9389,29.1199,331.6989,-0.00030114,-0.00042743,0.0,0 STARLINK-4159,1 53292U 22086BC  22253.50001157 -.00042743  00000-0 -30114-3 0  9996,2 53292  53.2174 165.9389 0001978  29.1199 331.6989 15.73238856  8175,6727.784000000002,91.531,350.98,348.319,0.0
53292.0,STARLINK-4159,PAYLOAD,2022-09-10 14:00:01,15.73181754,0.0001955,53.2174,165.5262,28.1037,84.9585,0.0003542,0.00049345,0.0,0 STARLINK-4159,1 53292U 22086BC  22253.58334491  .00049345  00000-0  35420-3 0  9992,2 53292  53.2174 165.5262 0001955  28.1037  84.9585 15.73181754  1308,6727.946999999999,91.534,351.12800000000016,348.497,0.0
53292.0,STARLINK-4159,PAYLOAD,2022-09-10 22:00:00,15.73228314,0.0002149,53.2174,163.8777,32.1556,169.8295,-0.00053357,-0.00074939,0.0,0 STARLINK-4159,1 53292U 22086BC  22253.91667824 -.00074939  00000-0 -53357-3 0  9996,2 53292  53.2174 163.8777 0002149  32.1556 169.8295 15.73228314  1302,6727.814,91.532,351.125,348.2340000000001,0.0
53292.0,STARLINK-4159,PAYLOAD,2022-09-11 06:00:00,15.73179244,0.0002298,53.2167,162.2292,30.8361,260.0919,0.00066019,0.00092987,0.0,0 STARLINK-4159,1 53292U 22086BC  22254.25001157  .00092987  00000-0  66019-3 0  9995,2 53292  53.2167 162.2292 0002298  30.8361 260.0919 15.73179244  8292,6727.954000000002,91.534,351.365,348.273,0.0
53292.0,STARLINK-4159,PAYLOAD,2022-09-11 14:00:01,15.73239294,0.0001927,53.2166,160.5777,33.431999999999995,346.4414,0.00019845,0.00027369,0.0,0 STARLINK-4159,1 53292U 22086BC  22254.58334491  .00027369  00000-0  19845-3 0  9998,2 53292  53.2166 160.5777 0001927  33.4320 346.4414 15.73239294  1308,6727.783,91.531,350.945,348.352,0.0
53292.0,STARLINK-4159,PAYLOAD,2022-09-11 22:00:00,15.7326423,0.0001875999999999,53.2168,158.9293,27.8739,80.9897,-0.00059051,-0.00082916,0.0,0 STARLINK-4159,1 53292U 22086BC  22254.91667824 -.00082916  00000-0 -59051-3 0  9998,2 53292  53.2168 158.9293 0001876  27.8739  80.9897 15.73264230  8409,6727.712,91.529,350.839,348.315,0.0
53292.0,STARLINK-4159,PAYLOAD,2022-09-12 14:00:01,15.73147148,0.0001816,53.2168,155.6292,28.4946,258.2635,0.00082504,0.00116525,0.0,0 STARLINK-4159,1 53292U 22086BC  22255.58334491  .00116525  00000-0  82504-3 0  9994,2 53292  53.2168 155.6292 0001816  28.4946 258.2635 15.73147148  1303,6728.045999999999,91.536,351.1330000000001,348.689,0.0
53292.0,STARLINK-4159,PAYLOAD,2022-09-12 22:00:00,15.73263415,0.0001906999999999,53.2167,153.9809,27.3285,348.3382,-0.00056527,-0.00079428,0.0,0 STARLINK-4159,1 53292U 22086BC  22255.91667824 -.00079428  00000-0 -56527-3 0  9998,2 53292  53.2167 153.9809 0001907  27.3285 348.3382 15.73263415  1308,6727.714,91.529,350.862,348.296,0.0
53292.0,STARLINK-4159,PAYLOAD,2022-09-13 06:00:00,15.73218217,0.0002049,53.2161,152.3319,25.9311,78.7043,-0.00031148,-0.00044144,0.0,0 STARLINK-4159,1 53292U 22086BC  22256.25001157 -.00044144  00000-0 -31148-3 0  9996,2 53292  53.2161 152.3319 0002049  25.9311  78.7043 15.73218217  8612,6727.843000000003,91.532,351.087,348.33,0.0
53292.0,STARLINK-4159,PAYLOAD,2022-09-13 14:00:01,15.73193512,0.0001825,53.2159,150.6805,36.776,156.7911,5.6612e-06,1.74e-06,0.0,0 STARLINK-4159,1 53292U 22086BC  22256.58334491  .00000174  00000-0  56612-5 0  9990,2 53292  53.2159 150.6805 0001825  36.7760 156.7911 15.73193512  1309,6727.9140000000025,91.534,351.00699999999995,348.551,0.0
53292.0,STARLINK-4159,PAYLOAD,2022-09-13 20:00:01,15.7318981,0.0001875999999999,53.2163,149.4373,40.1238,130.1416,2.8948e-05,3.442e-05,0.0,0 STARLINK-4159,1 53292U 22086BC  22256.83334491  .00003442  00000-0  28948-4 0  9999,2 53292  53.2163 149.4373 0001876  40.1238 130.1416 15.73189810  8708,6727.924,91.534,351.051,348.527,0.0
53292.0,STARLINK-4159,PAYLOAD,2022-09-13 22:00:00,15.73173503,0.0001996999999999,53.2161,149.0326,37.339,245.1275,0.00013006,0.00017651,0.0,0 STARLINK-4159,1 53292U 22086BC  22256.91667824  .00017651  00000-0  13006-3 0  9992,2 53292  53.2161 149.0326 0001997  37.3390 245.1275 15.73173503  1302,6727.971,91.535,351.17900000000014,348.492,0.0
53292.0,STARLINK-4159,PAYLOAD,2022-09-14 06:00:00,15.73167789,0.0001996999999999,53.2159,147.3836,31.4326,339.9141,8.6081e-05,0.00011461,0.0,0 STARLINK-4159,1 53292U 22086BC  22257.25001157  .00011461  00000-0  86081-4 0  9998,2 53292  53.2159 147.3836 0001997  31.4326 339.9141 15.73167789  8760,6727.986999999999,91.535,351.196,348.5080000000001,0.0
53292.0,STARLINK-4159,PAYLOAD,2022-09-14 14:00:01,15.73144988,0.0001744,53.2162,145.7321,34.7675,65.4717,0.00073408,0.00103437,0.0,0 STARLINK-4159,1 53292U 22086BC  22257.58334491  .00103437  00000-0  73408-3 0  9997,2 53292  53.2162 145.7321 0001744  34.7675  65.4717 15.73144988  1307,6728.052,91.536,351.09,348.744,0.0
53292.0,STARLINK-4159,PAYLOAD,2022-09-14 20:00:01,15.73232713,0.0001843,53.2164,144.4961,33.8246,43.0785,-0.00011748,-0.00017099,0.0,0 STARLINK-4159,1 53292U 22086BC  22257.83334491 -.00017099  00000-0 -11748-3 0  9994,2 53292  53.2164 144.4961 0001843  33.8246  43.0785 15.73232713  8868,6727.802,91.531,350.907,348.427,0.0
53292.0,STARLINK-4159,PAYLOAD,2022-09-14 22:00:00,15.73247615,0.000188,53.2162,144.0842,32.0991,157.0411,-0.00035029,-0.00049596,0.0,0 STARLINK-4159,1 53292U 22086BC  22257.91667824 -.00049596  00000-0 -35029-3 0  9997,2 53292  53.2162 144.0842 0001880  32.0991 157.0411 15.73247615  1300,6727.759,91.53,350.889,348.36,0.0
53292.0,STARLINK-4159,PAYLOAD,2022-09-15 06:00:00,15.73257684,0.0001906999999999,53.2156,142.4348,27.5766,250.5459,-0.00010577,-0.00015476,0.0,0 STARLINK-4159,1 53292U 22086BC  22258.25001157 -.00015476  00000-0 -10577-3 0  9997,2 53292  53.2156 142.4348 0001907  27.5766 250.5459 15.73257684  8928,6727.731,91.53,350.879,348.31300000000016,0.0
53292.0,STARLINK-4159,PAYLOAD,2022-09-15 14:00:01,15.73220429,0.0001621,53.2157,140.7834,32.4645,334.6582,0.00032681,0.00045535,0.0,0 STARLINK-4159,1 53292U 22086BC  22258.58334491  .00045535  00000-0  32681-3 0  9990,2 53292  53.2157 140.7834 0001621  32.4645 334.6582 15.73220429  1307,6727.837,91.532,350.793,348.611,0.0
53292.0,STARLINK-4159,PAYLOAD,2022-09-15 22:00:00,15.73250943,0.0001732,53.2157,139.135,27.8748,68.2227,-0.00028499,-0.00040514,0.0,0 STARLINK-4159,1 53292U 22086BC  22258.91667824 -.00040514  00000-0 -28499-3 0  9992,2 53292  53.2157 139.1350 0001732  27.8748  68.2227 15.73250943  1307,6727.75,91.53,350.78,348.45,0.0
53292.0,STARLINK-4159,PAYLOAD,2022-09-16 00:00:00,15.73183432,0.000185,53.216,138.7237,27.6252,180.6861,0.00016267,0.00022254,0.0,0 STARLINK-4159,1 53292U 22086BC  22259.00001157  .00022254  00000-0  16267-3 0  9993,2 53292  53.2160 138.7237 0001850  27.6252 180.6861 15.73183432  9049,6727.941999999999,91.534,351.052,348.56300000000016,0.0
53292.0,STARLINK-4159,PAYLOAD,2022-09-16 14:00:01,15.73147756,0.0001629999999999,53.2163,135.8347,31.421,242.4969,-1.1713e-05,-2.26e-05,0.0,0 STARLINK-4159,1 53292U 22086BC  22259.58334491 -.00002260  00000-0 -11713-4 0  9995,2 53292  53.2163 135.8347 0001630  31.4210 242.4969 15.73147756  1301,6728.044,91.536,351.006,348.81199999999984,0.0
